[{"OBJECT_NAME":"STARLINK-32355","OBJECT_ID":"2024-191P","EPOCH":"2026-03-09T22:59:23.716896","MEAN_MOTION":15.27569755,"ECCENTRICITY":5.962e-5,"INCLINATION":43.0008,"RA_OF_ASC_NODE":156.7849,"ARG_OF_PERICENTER":284.8532,"MEAN_ANOMALY":75.2253,"EPHEMERIS_TYPE":0,"CLASSIFICATION_TYPE":"U","NORAD_CAT_ID":61634,"ELEMENT_SET_NO":999,"REV_AT_EPOCH":7753,"BSTAR":7.0839112e-5,"MEAN_MOTION_DOT":1.687e-5,"MEAN_MOTION_DDOT":0},{"OBJECT_NAME":"HERMES-3","OBJECT_ID":"2025-052BR","EPOCH":"2026-03-09T22:30:01.073952","MEAN_MOTION":15.30039786,"ECCENTRICITY":0.00079928,"INCLINATION":97.3987,"RA_OF_ASC_NODE":324.6131,"ARG_OF_PERICENTER":112.9583,"MEAN_ANOMALY":247.2502,"EPHEMERIS_TYPE":0,"CLASSIFICATION_TYPE":"U","NORAD_CAT_ID":63835,"ELEMENT_SET_NO":999,"REV_AT_EPOCH":5486,"BSTAR":0.0006995793,"MEAN_MOTION_DOT":0.00020316,"MEAN_MOTION_DDOT":0}]
